OBJECT_NAME,OBJECT_ID,EPOCH,MEAN_MOTION,ECCENTRICITY,INCLINATION,RA_OF_ASC_NODE,ARG_OF_PERICENTER,MEAN_ANOMALY,EPHEMERIS_TYPE,CLASSIFICATION_TYPE,NORAD_CAT_ID,ELEMENT_SET_NO,REV_AT_EPOCH,BSTAR,MEAN_MOTION_DOT,MEAN_MOTION_DDOT
ONEWEB-0300,2021-075Q,2026-07-19T19:26:29.082048,13.12442397,.0001464,87.8978,344.1719,99.4940,260.6354,0,U,49089,999,23948,-.1139E-2,-.397E-5,0
ONEWEB-0301,2021-075R,2026-07-19T19:03:18.518112,13.12441945,.0001564,87.8977,344.1725,104.6629,255.4673,0,U,49090,999,23884,-.1144E-3,-.28E-6,0
ONEWEB-0302,2021-075S,2026-07-19T20:33:37.241856,13.12433979,.0002162,87.8971,344.1724,92.2569,267.8807,0,U,49091,999,23883,.6261E-2,.2265E-4,0
ONEWEB-0304,2021-075T,2026-07-19T19:42:05.643360,13.17647382,.0001851,87.9149,359.3781,90.7477,269.3867,0,U,49092,999,23787,-.10783E-3,-.29E-6,0
ONEWEB-0305,2021-075U,2026-07-19T19:32:22.394112,13.17647708,.0001781,87.9159,359.3667,80.9402,279.1931,0,U,49093,999,23790,-.24104E-4,.4E-7,0
ONEWEB-0308,2021-075V,2026-07-19T20:23:49.310592,13.12462541,.0002039,87.8982,344.1666,100.4453,259.6906,0,U,49094,999,23884,-.10195E-1,-.3655E-4,0
ONEWEB-0309,2021-075W,2026-07-19T19:37:12.997056,13.17648727,.0002325,87.9154,359.3714,89.4855,270.6543,0,U,49095,999,23787,-.46991E-3,-.17E-5,0
ONEWEB-0310,2021-075X,2026-07-19T20:45:46.329984,13.12442501,.0001869,87.8969,344.1818,97.6937,262.4403,0,U,49096,999,23947,.31627E-3,.126E-5,0
ONEWEB-0311,2021-075Y,2026-07-19T19:46:57.042912,13.17648057,.0001609,87.9151,359.3703,80.8309,279.3005,0,U,49097,999,23792,-.16188E-4,.7E-7,0
ONEWEB-0312,2021-075Z,2026-07-19T16:30:07.822656,13.17648918,.000196,87.9147,359.4076,85.0701,275.0655,0,U,49098,999,23788,-.27235E-4,.2E-7,0
ONEWEB-0313,2021-075AA,2026-07-19T20:15:53.986176,13.17648427,.0001819,87.9150,359.3812,90.2787,269.8553,0,U,49099,999,23789,-.49589E-3,-.18E-5,0
ONEWEB-0314,2021-075AB,2026-07-19T19:27:29.575008,13.17648720,.0002024,87.9158,359.3647,83.1810,276.9552,0,U,49100,999,23786,-.39639E-3,-.141E-5,0
ONEWEB-0315,2021-075AC,2026-07-19T20:06:44.923680,13.12443454,.0001539,87.8977,344.1543,89.0385,271.0920,0,U,49101,999,23945,.6739E-3,.255E-5,0
ONEWEB-0316,2021-075AD,2026-07-19T18:51:37.032192,13.18686275,.0001979,87.9195,328.9741,99.6724,260.4631,0,U,49102,999,24150,.40389E-4,.29E-6,0
ONEWEB-0317,2021-075AE,2026-07-19T20:11:37.841280,13.12443120,.0002537,87.8971,344.1770,104.5320,255.6090,0,U,49103,999,23947,.88279E-3,.33E-5,0
ONEWEB-0318,2021-075AF,2026-07-19T18:46:33.752640,13.18686517,.0001784,87.9199,328.9771,94.4784,265.6552,0,U,49104,999,24146,.23693E-4,.22E-6,0
ONEWEB-0319,2021-075AG,2026-07-19T19:49:22.795392,13.17647520,.000143,87.9154,359.3744,82.8350,277.2944,0,U,49105,999,23790,-.90076E-4,-.22E-6,0
ONEWEB-0323,2021-075AH,2026-07-19T19:44:47.073984,13.12443467,.0001533,87.8977,344.1627,81.8047,278.3256,0,U,49106,999,23883,-.78239E-3,-.269E-5,0
ONEWEB-0329,2021-075AJ,2026-07-19T10:54:46.427328,13.17648679,.00019361,87.9153,359.4495,88.9611,271.1743,0,U,49107,999,23783,.15994947E-3,.75E-6,0
ONEWEB-0330,2021-075AK,2026-07-19T16:27:52.553952,13.17647228,.0001988,87.9154,359.4153,89.2081,270.9278,0,U,49108,999,23790,.13857E-3,.67E-6,0
ONEWEB-0292,2021-083A,2026-07-19T18:28:10.675200,13.13470218,.0001808,87.8981,313.7541,99.1621,260.9713,0,U,49186,999,23520,.85917E-3,.327E-5,0
ONEWEB-0303,2021-083B,2026-07-19T18:41:42.183744,13.18684176,.0001775,87.9198,328.9761,95.1758,264.9577,0,U,49187,999,23427,.74642E-4,.42E-6,0
ONEWEB-0306,2021-083C,2026-07-19T18:27:08.711712,13.18685296,.0002133,87.9201,328.9670,100.3997,259.7376,0,U,49188,999,23431,.34319E-3,.148E-5,0
ONEWEB-0307,2021-083D,2026-07-19T18:19:38.579808,13.13468999,.0001896,87.8980,313.7532,96.7323,263.4022,0,U,49189,999,23520,.87879E-3,.334E-5,0
ONEWEB-0320,2021-083E,2026-07-19T18:56:15.430272,13.18684786,.0001966,87.9191,328.9777,99.8350,260.3004,0,U,49190,999,23427,-.28812E-3,-.101E-5,0
ONEWEB-0321,2021-083F,2026-07-19T16:49:00.759072,13.20771311,.0002159,87.9177,267.9557,103.2621,256.8754,0,U,49191,999,24112,-.47453E-3,-.18E-5,0
ONEWEB-0322,2021-083G,2026-07-19T18:13:33.614112,13.13470580,.0002129,87.8980,313.7536,111.5632,248.5724,0,U,49192,999,23519,.73469E-3,.281E-5,0
ONEWEB-0324,2021-083H,2026-07-19T18:17:25.882368,13.18686627,.0002064,87.9205,328.9740,95.4116,264.7252,0,U,49193,999,23429,.46682E-4,.31E-6,0
ONEWEB-0325,2021-083J,2026-07-19T20:11:31.934976,13.18687780,.0001838,87.9193,328.9634,100.5105,259.6234,0,U,49194,999,23431,.14517E-3,.7E-6,0
ONEWEB-0326,2021-083K,2026-07-19T18:44:21.185664,13.18686270,.0001641,87.9202,328.9760,95.1678,264.9641,0,U,49195,999,23429,.62865E-4,.38E-6,0
ONEWEB-0327,2021-083L,2026-07-19T18:43:57.036864,13.18686107,.0001487,87.9192,328.9777,98.7691,261.3610,0,U,49196,999,23431,.52447E-4,.34E-6,0
ONEWEB-0328,2021-083M,2026-07-19T19:48:37.641888,13.13470350,.0002047,87.8989,313.7169,96.6547,263.4815,0,U,49197,999,23518,.22569E-3,.95E-6,0
ONEWEB-0331,2021-083N,2026-07-19T18:34:25.723776,13.18685173,.0001669,87.9202,328.9714,90.5874,269.5450,0,U,49198,999,23430,.2044E-3,.93E-6,0
ONEWEB-0333,2021-083P,2026-07-19T19:41:18.703104,13.13470080,.0001893,87.8979,313.7413,101.7380,258.3961,0,U,49199,999,23519,-.18255E-3,-.54E-6,0
ONEWEB-0334,2021-083Q,2026-07-19T17:09:36.850176,13.20769454,.0002562,87.9180,267.9631,113.9152,246.2250,0,U,49200,999,24108,.31013E-4,.26E-6,0
ONEWEB-0335,2021-083R,2026-07-19T19:33:59.901696,13.13468873,.0001815,87.8979,313.7396,96.5129,263.6206,0,U,49201,999,23520,-.57313E-3,-.197E-5,0
ONEWEB-0336,2021-083S,2026-07-19T18:52:33.277728,13.13469166,.0001774,87.8979,313.7398,92.0631,268.0701,0,U,49202,999,23519,.39901E-4,.27E-6,0
ONEWEB-0337,2021-083T,2026-07-19T19:06:59.633856,13.13468916,.0002007,87.8978,313.7434,93.6792,266.4566,0,U,49203,999,23519,-.68786E-3,-.238E-5,0
ONEWEB-0338,2021-083U,2026-07-19T16:36:53.137152,13.20770639,.0002175,87.9178,267.9693,106.2036,253.9337,0,U,49204,999,24110,-.66175E-6,.13E-6,0
ONEWEB-0339,2021-083V,2026-07-19T19:19:22.183104,13.13469645,.0002185,87.8982,313.7354,105.0118,255.1253,0,U,49205,999,23517,-.10373E-2,-.366E-5,0
ONEWEB-0340,2021-083W,2026-07-19T18:14:59.765280,13.18685670,.0001839,87.9203,328.9797,94.2058,265.9284,0,U,49206,999,23426,-.3912E-3,-.141E-5,0
ONEWEB-0341,2021-083X,2026-07-19T18:24:41.969088,13.18685630,.0002225,87.9198,328.9794,88.9249,271.2138,0,U,49207,999,23428,-.45852E-3,-.168E-5,0
ONEWEB-0342,2021-083Y,2026-07-19T16:46:33.523104,13.20778612,.0001943,87.9214,267.9585,101.6110,258.5241,0,U,49208,999,24107,.18726E-2,.775E-5,0
ONEWEB-0343,2021-083Z,2026-07-19T18:36:50.505984,13.18687546,.0002279,87.9196,328.9768,104.4902,255.6483,0,U,49209,999,23433,.28809E-4,.24E-6,0
ONEWEB-0344,2021-083AA,2026-07-19T19:12:02.408832,13.13469140,.0002172,87.8980,313.7487,90.5344,269.6034,0,U,49210,999,23517,-.59074E-3,-.203E-5,0
ONEWEB-0345,2021-083AB,2026-07-19T18:59:51.976320,13.13469523,.0002177,87.8990,313.7361,94.0590,266.0788,0,U,49211,999,23518,-.44646E-3,-.15E-5,0
ONEWEB-0346,2021-083AC,2026-07-19T18:31:59.071008,13.18686804,.0001383,87.9194,328.9762,84.2561,275.8729,0,U,49212,999,23427,-.10795E-3,-.3E-6,0
ONEWEB-0348,2021-083AD,2026-07-19T16:32:02.516064,13.20772635,.0001992,87.9180,267.9647,83.1106,277.0254,0,U,49213,999,24110,.17243E-3,.83E-6,0
ONEWEB-0350,2021-083AE,2026-07-19T19:26:51.550368,13.13471700,.0001827,87.8984,313.7365,133.4752,226.6529,0,U,49214,999,23521,-.69823E-3,-.242E-5,0
ONEWEB-0351,2021-083AF,2026-07-19T16:22:08.985216,13.20770581,.0002709,87.9180,267.9649,100.4000,259.7439,0,U,49215,999,24106,-.16562E-4,.6E-7,0
ONEWEB-0352,2021-083AG,2026-07-19T18:45:14.745024,13.13469275,.0002325,87.8984,313.7467,105.5051,254.6335,0,U,49216,999,23530,.28407E-3,.116E-5,0
ONEWEB-0354,2021-083AH,2026-07-19T17:01:08.046624,13.20771232,.0002067,87.9184,267.9587,88.1642,271.9728,0,U,49217,999,24110,.80769E-4,.46E-6,0
ONEWEB-0355,2021-083AJ,2026-07-19T19:27:52.211808,13.13468111,.0002161,87.8980,313.7416,99.7716,260.3657,0,U,49218,999,23518,-.59248E-3,-.204E-5,0
ONEWEB-0357,2021-083AK,2026-07-19T16:56:16.715328,13.20770453,.0002194,87.9183,267.9526,99.4150,260.7231,0,U,49219,999,24110,.20233E-3,.95E-6,0
ONEWEB-0332,2021-090A,2026-07-19T17:18:08.054784,13.14503578,.000203,87.8963,283.2268,105.7076,254.4278,0,U,49279,999,23185,-.54027E-3,-.188E-5,0
ONEWEB-0347,2021-090B,2026-07-19T16:41:44.288736,13.20770502,.0002047,87.9179,267.9626,105.5426,254.5934,0,U,49280,999,23533,.27508E-3,.125E-5,0
ONEWEB-0349,2021-090C,2026-07-19T17:27:47.474784,13.20770410,.0002071,87.9182,267.9571,97.8485,262.2884,0,U,49281,999,23412,-.12999E-3,-.4E-6,0
ONEWEB-0353,2021-090D,2026-07-19T18:56:20.044032,13.14502719,.0002025,87.8966,283.2095,107.0091,253.1260,0,U,49282,999,23186,-.57293E-3,-.2E-5,0
ONEWEB-0356,2021-090E,2026-07-19T17:25:22.531872,13.20771023,.0001227,87.9181,267.9508,99.4697,260.6575,0,U,49283,999,23412,.90792E-4,.5E-6,0
ONEWEB-0358,2021-090F,2026-07-19T16:28:23.214720,13.20769815,.0001943,87.9182,267.9663,95.4931,264.6424,0,U,49284,999,23484,.26538E-3,.121E-5,0
ONEWEB-0359,2021-090G,2026-07-19T14:25:58.570176,13.20770541,.0002042,87.9179,267.9752,89.3355,270.8013,0,U,49285,999,23481,.5129E-4,.34E-6,0
ONEWEB-0360,2021-090H,2026-07-19T16:00:32.610240,13.20771474,.0002165,87.9177,267.9685,96.3940,263.7440,0,U,49286,999,23413,.42966E-4,.3E-6,0
ONEWEB-0361,2021-090J,2026-07-19T17:22:56.154720,13.20771093,.000197,87.9182,267.9556,94.0284,266.1074,0,U,49287,999,23459,-.43176E-3,-.163E-5,0
ONEWEB-0362,2021-090K,2026-07-19T18:40:57.045792,13.19730808,.0002422,87.9189,298.4883,99.6363,260.5044,0,U,49288,999,23121,-.41593E-2,-.1652E-4,0
ONEWEB-0363,2021-090L,2026-07-19T15:55:40.565280,13.20772138,.0001718,87.9184,267.9681,96.6472,263.4857,0,U,49289,999,23459,.15803E-3,.77E-6,0
ONEWEB-0364,2021-090M,2026-07-19T16:51:25.949088,13.20770576,.0002109,87.9178,267.9679,99.0462,261.0910,0,U,49290,999,23573,.10845E-3,.57E-6,0
ONEWEB-0365,2021-090N,2026-07-19T18:54:36.599904,13.19726341,.0002072,87.9193,298.4773,101.5209,258.6156,0,U,49291,999,23072,-.35913E-4,-.1E-7,0
